NORAD_CAT_ID,OBJECT_NAME,OBJECT_TYPE,EPOCH,MEAN_MOTION,ECCENTRICITY,INCLINATION,RA_OF_ASC_NODE,ARG_OF_PERICENTER,MEAN_ANOMALY,BSTAR,MEAN_MOTION_DOT,MEAN_MOTION_DDOT,TLE_LINE0,TLE_LINE1,TLE_LINE2,SEMIMAJOR_AXIS,PERIOD,APOGEE,PERIGEE,DECAYED
52833.0,STARLINK-4086,PAYLOAD,2024-03-29 09:50:21,15.08845645,9.33e-05,53.2178,342.6902,61.5394,298.5692,-5.3268e-05,-1.136e-05,0.0,0 STARLINK-4086,1 52833U 22062D   24089.40996754 -.00001136  00000-0 -53268-4 0  9991,2 52833  53.2178 342.6902 0000933  61.5394 298.5692 15.08845645 98552,6917.863,95.437,540.374,539.083,0.0
52833.0,STARLINK-4086,PAYLOAD,2024-03-29 22:33:26,15.08826757,7.72e-05,53.2165,340.3112,76.8409,283.2669,-2.4427e-05,-6.76e-06,0.0,0 STARLINK-4086,1 52833U 22062D   24089.93989494 -.00000676  00000-0 -24427-4 0  9995,2 52833  53.2165 340.3112 0000772  76.8409 283.2669 15.08826757 98630,6917.921,95.438,540.32,539.252,0.0
52833.0,STARLINK-4086,PAYLOAD,2024-03-30 01:44:13,15.08827489,0.0001004,53.2172,339.7173,85.2898,274.8209,0.00080985,0.0001262,0.0,0 STARLINK-4086,1 52833U 22062D   24090.07237893  .00012620  00000-0  80985-3 0  9991,2 52833  53.2172 339.7173 0001004  85.2898 274.8209 15.08827489 98653,6917.919,95.438,540.478,539.089,0.0
52833.0,STARLINK-4086,PAYLOAD,2024-03-30 09:41:09,15.08838889,9.09e-05,53.2175,338.2303,70.4652,289.6438,0.00088938,0.00013894,0.0,0 STARLINK-4086,1 52833U 22062D   24090.40357917  .00013894  00000-0  88938-3 0  9998,2 52833  53.2175 338.2303 0000909  70.4652 289.6438 15.08838889 98702,6917.884,95.438,540.378,539.12,0.0
52833.0,STARLINK-4086,PAYLOAD,2024-03-30 20:48:51,15.08829311,9.69e-05,53.217,336.1489,76.075,284.035,0.00059676,9.22e-05,0.0,0 STARLINK-4086,1 52833U 22062D   24090.86726601  .00009220  00000-0  59676-3 0  9993,2 52833  53.2170 336.1489 0000969  76.0750 284.0350 15.08829311 98775,6917.913,95.438,540.448,539.108,0.0
52833.0,STARLINK-4086,PAYLOAD,2024-03-30 22:24:14,15.08831713,8.19e-05,53.2168,335.8513,70.1413,289.9667,0.00073871,0.00011486,0.0,0 STARLINK-4086,1 52833U 22062D   24090.93350639  .00011486  00000-0  73871-3 0  9995,2 52833  53.2168 335.8513 0000819  70.1413 289.9667 15.08831713 98786,6917.906,95.438,540.337,539.204,0.0
52833.0,STARLINK-4086,PAYLOAD,2024-03-31 09:31:56,15.08863294,9.29e-05,53.2172,333.7703,75.5235,284.5861,0.001942,0.00030774,0.0,0 STARLINK-4086,1 52833U 22062D   24091.39718611  .00030774  00000-0  19420-2 0  9994,2 52833  53.2172 333.7703 0000929  75.5235 284.5861 15.08863294 98856,6917.809,95.436,540.317,539.032,0.0
52833.0,STARLINK-4086,PAYLOAD,2024-03-31 20:39:38,15.08852586,0.0001048,53.2175,331.6906,71.6217,288.4889,0.0008424,0.00013149,0.0,0 STARLINK-4086,1 52833U 22062D   24091.86086544  .00013149  00000-0  84240-3 0  9999,2 52833  53.2175 331.6906 0001048  71.6217 288.4889 15.08852586 98924,6917.842,95.437,540.432,538.982,0.0
52833.0,STARLINK-4086,PAYLOAD,2024-03-31 22:15:01,15.08854048,9.23e-05,53.217,331.3912,80.6065,279.5031,0.00096491,0.00015108,0.0,0 STARLINK-4086,1 52833U 22062D   24091.92710397  .00015108  00000-0  96491-3 0  9994,2 52833  53.2170 331.3912 0000923  80.6065 279.5031 15.08854048 98931,6917.837,95.437,540.341,539.064,0.0
52833.0,STARLINK-4086,PAYLOAD,2024-04-01 09:22:43,15.0886523,9.28e-05,53.217,329.3097,80.8899,279.2198,0.0007243,0.00011266,0.0,0 STARLINK-4086,1 52833U 22062D   24092.39077682  .00011266  00000-0  72430-3 0  9997,2 52833  53.2170 329.3097 0000928  80.8899 279.2198 15.08865230 99009,6917.803,95.436,540.31,539.026,0.0
52833.0,STARLINK-4086,PAYLOAD,2024-04-01 20:30:25,15.08839133,9.11e-05,53.2177,327.2296,80.8399,279.2696,-8.0845e-05,-1.574e-05,0.0,0 STARLINK-4086,1 52833U 22062D   24092.85446040 -.00001574  00000-0 -80845-4 0  9999,2 52833  53.2177 327.2296 0000911  80.8399 279.2696 15.08839133 99074,6917.883,95.438,540.378,539.118,0.0
52833.0,STARLINK-4086,PAYLOAD,2024-04-02 01:16:34,15.08843608,9.43e-05,53.2177,326.3357,98.7984,261.3115,0.00030851,4.626e-05,0.0,0 STARLINK-4086,1 52833U 22062D   24093.05318046  .00004626  00000-0  30851-3 0  9996,2 52833  53.2177 326.3357 0000943  98.7984 261.3115 15.08843608 99109,6917.869,95.437,540.387,539.082,0.0
52833.0,STARLINK-4086,PAYLOAD,2024-04-02 21:56:36,15.0883723,9.47e-05,53.2183,322.4709,93.8066,266.3034,0.00039744,6.043e-05,0.0,0 STARLINK-4086,1 52833U 22062D   24093.91430717  .00006043  00000-0  39744-3 0  9996,2 52833  53.2183 322.4709 0000947  93.8066 266.3034 15.08837230 99238,6917.889,95.438,540.409,539.099,0.0
52833.0,STARLINK-4086,PAYLOAD,2024-04-03 01:07:22,15.08839724,9.44e-05,53.2178,321.8759,94.2725,265.8375,0.00044306,6.77e-05,0.0,0 STARLINK-4086,1 52833U 22062D   24094.04678718  .00006770  00000-0  44306-3 0  9993,2 52833  53.2178 321.8759 0000944  94.2725 265.8375 15.08839724 99258,6917.881,95.438,540.399,539.093,0.0
52833.0,STARLINK-4086,PAYLOAD,2024-04-03 21:47:23,15.08840543,9.04e-05,53.2175,318.0106,92.6844,267.4252,0.00022892,3.357e-05,0.0,0 STARLINK-4086,1 52833U 22062D   24094.90790856  .00003357  00000-0  22892-3 0  9990,2 52833  53.2175 318.0106 0000904  92.6844 267.4252 15.08840543 99386,6917.879,95.438,540.369,539.118,0.0
52833.0,STARLINK-4086,PAYLOAD,2024-04-04 07:19:41,15.08846424,8.5e-05,53.2171,316.2256,90.0011,270.1078,0.00026874,3.993e-05,0.0,0 STARLINK-4086,1 52833U 22062D   24095.30534559  .00003993  00000-0  26874-3 0  9991,2 52833  53.2171 316.2256 0000850  90.0011 270.1078 15.08846424 99444,6917.861,95.437,540.314,539.138,0.0
52833.0,STARLINK-4086,PAYLOAD,2024-04-04 21:38:10,15.08838617,0.0001044,53.2176,313.552,101.4331,258.6778,0.00011672,1.57e-05,0.0,0 STARLINK-4086,1 52833U 22062D   24095.90150970  .00001570  00000-0  11672-3 0  9997,2 52833  53.2176 313.5520 0001044 101.4331 258.6778 15.08838617 99534,6917.885,95.438,540.472,539.027,0.0
52833.0,STARLINK-4086,PAYLOAD,2024-04-05 15:07:25,15.08822958,0.0001104,53.2169,310.2782,84.0235,276.0883,-0.00014007,-2.515e-05,0.0,0 STARLINK-4086,1 52833U 22062D   24096.63015987 -.00002515  00000-0 -14007-3 0  9993,2 52833  53.2169 310.2782 0001104  84.0235 276.0883 15.08822958 99640,6917.932,95.439,540.561,539.034,0.0
52833.0,STARLINK-4086,PAYLOAD,2024-04-05 19:53:35,15.0881537,7.57e-05,53.216,309.3846,72.1159,287.9916,-0.0002352,-4.026e-05,0.0,0 STARLINK-4086,1 52833U 22062D   24096.82888546 -.00004026  00000-0 -23520-3 0  9992,2 52833  53.2160 309.3846 0000757  72.1159 287.9916 15.08815370 99678,6917.956,95.439,540.344,539.297,0.0
52833.0,STARLINK-4086,PAYLOAD,2024-04-05 21:28:58,15.08814956,7.38e-05,53.2162,309.0873,71.5962,288.511,-0.00023255,-3.984e-05,0.0,0 STARLINK-4086,1 52833U 22062D   24096.89512663 -.00003984  00000-0 -23255-3 0  9990,2 52833  53.2162 309.0873 0000738  71.5962 288.5110 15.08814956 99684,6917.957,95.439,540.332,539.311,0.0
52833.0,STARLINK-4086,PAYLOAD,2024-04-06 07:01:17,15.08829533,8.18e-05,53.218,307.3083,109.2349,250.8732,-9.9856e-06,-4.46e-06,0.0,0 STARLINK-4086,1 52833U 22062D   24097.29256384 -.00000446  00000-0 -99856-5 0  9992,2 52833  53.2180 307.3083 0000818 109.2349 250.8732 15.08829533 99741,6917.912,95.438,540.343,539.211,0.0
52833.0,STARLINK-4086,PAYLOAD,2024-04-06 22:55:08,15.08846688,4.05e-05,53.2169,304.3327,115.2392,244.8642,0.00029114,4.35e-05,0.0,0 STARLINK-4086,1 52833U 22062D   24097.95495695  .00004350  00000-0  29114-3 0  9999,2 52833  53.2169 304.3327 0000405 115.2392 244.8642 15.08846688 99847,6917.86,95.437,540.005,539.445,0.0
52833.0,STARLINK-4086,PAYLOAD,2024-04-07 13:13:36,15.08854753,0.0002169,53.2133,301.6514,79.8335,280.2902,0.00062192,9.628e-05,0.0,0 STARLINK-4086,1 52833U 22062D   24098.55112122  .00009628  00000-0  62192-3 0  9993,2 52833  53.2133 301.6514 0002169  79.8335 280.2902 15.08854753 99932,6917.835,95.437,541.201,538.2,0.0
52833.0,STARLINK-4086,PAYLOAD,2024-04-07 21:10:32,15.08848593,0.0001216,53.217,300.1686,77.4196,282.6932,0.00036944,5.598e-05,0.0,0 STARLINK-4086,1 52833U 22062D   24098.88231740  .00005598  00000-0  36944-3 0  9995,2 52833  53.2170 300.1686 0001216  77.4196 282.6932 15.08848593 99987,6917.854,95.437,540.56,538.878,0.0
52833.0,STARLINK-4086,PAYLOAD,2024-04-08 13:04:23,15.08846808,0.0001491,53.2186,297.1904,93.9166,266.1997,-4.0509e-05,-9.33e-06,0.0,0 STARLINK-4086,1 52833U 22062D   24099.54471461 -.00000933  00000-0 -40509-4 0  9998,2 52833  53.2186 297.1904 0001491  93.9166 266.1997 15.08846808100086,6917.86,95.437,540.756,538.693,0.0
52833.0,STARLINK-4086,PAYLOAD,2024-04-09 00:12:04,15.08852743,0.0001723,53.2172,295.1142,78.3327,281.7858,8.6224e-05,1.085e-05,0.0,0 STARLINK-4086,1 52833U 22062D   24100.00838951  .00001085  00000-0  86224-4 0  9994,2 52833  53.2172 295.1142 0001723  78.3327 281.7858 15.08852743100159,6917.841,95.437,540.898,538.514,0.0
52833.0,STARLINK-4086,PAYLOAD,2024-04-09 03:22:50,15.08856111,0.0001339,53.2156,294.5177,80.6074,279.507,0.00031521,4.734e-05,0.0,0 STARLINK-4086,1 52833U 22062D   24100.14086719  .00004734  00000-0  31521-3 0  9999,2 52833  53.2156 294.5177 0001339  80.6074 279.5070 15.08856111100176,6917.831,95.437,540.622,538.77,0.0
52833.0,STARLINK-4086,PAYLOAD,2024-04-09 12:55:10,15.08845717,0.0001443,53.2144,292.7326,91.3795,268.7362,0.00011117,1.482e-05,0.0,0 STARLINK-4086,1 52833U 22062D   24100.53831031  .00001482  00000-0  11117-3 0  9993,2 52833  53.2144 292.7326 0001443  91.3795 268.7362 15.08845717100235,6917.863,95.437,540.726,538.73,0.0
52833.0,STARLINK-4086,PAYLOAD,2024-04-09 22:27:28,15.08841226,0.0001577,53.2145,290.9488,93.101,267.0163,0.00015226,2.136e-05,0.0,0 STARLINK-4086,1 52833U 22062D   24100.93575149  .00002136  00000-0  15226-3 0  9994,2 52833  53.2145 290.9488 0001577  93.1010 267.0163 15.08841226100291,6917.877,95.437,540.833,538.651,0.0
52833.0,STARLINK-4086,PAYLOAD,2024-04-10 12:45:57,15.0883442,0.0001125,53.2179,288.2739,81.0691,279.0429,1.637e-05,-2.7e-07,0.0,0 STARLINK-4086,1 52833U 22062D   24101.53191521 -.00000027  00000-0  16370-4 0  9999,2 52833  53.2179 288.2739 0001125  81.0691 279.0429 15.08834420100383,6917.897,95.438,540.541,538.984,0.0
